1 45935U          19305.65694444  .00000000  00000-0  00000-0 0 00000
2 45935 097.7390 66.0980 0000000 000.0000 142.8860 15.01920000000000
1 45935U          19306.07569444  .00000000  00000-0  00000-0 0 00000
2 45935 097.7400 66.5110 0000000 000.0000 244.1370 15.01920000000000
1 45935U          19306.29375000  .00000000  00000-0  00000-0 0 00000
2 45935 097.7400 66.7260 0000000 000.0000 341.6370 15.01920000000000
1 45935U          19306.73472222  .00000000  00000-0  00000-0 0 00000
2 45935 097.7400 67.1610 0000000 000.0000 202.8880 15.01920000000000
1 45935U          19307.06250000  .00000000  00000-0  00000-0 0 00000
2 45935 097.7400 67.4840 0000000 000.0000 172.8880 15.01920000000000
1 45935U          19307.34513889  .00000000  00000-0  00000-0 0 00000
2 45935 097.7400 67.7630 0000000 000.0000 259.1390 15.01920000000000
1 45935U          19307.61736111  .00000000  00000-0  00000-0 0 00000
2 45935 097.7410 68.0310 0000000 000.0000 289.1390 15.01920000000000
1 45935U          19308.05694444  .00000000  00000-0  00000-0 0 00000
2 45935 097.7410 68.4640 0000000 000.0000 142.8900 15.01920000000000
1 45935U          19308.25902778  .00000000  00000-0  00000-0 0 00000
2 45935 097.7410 68.6640 0000000 000.0000 154.1410 15.01920000000000
1 45935U          19308.68680556  .00000000  00000-0  00000-0 0 00000
2 45935 097.7410 69.0850 0000000 000.0000 304.1410 15.01920000000000
1 45935U          19308.93333333  .00000000  00000-0  00000-0 0 00000
2 45935 097.7420 69.3280 0000000 000.0000 195.3920 15.01920000000000
1 45935U          19309.36041667  .00000000  00000-0  00000-0 0 00000
2 45935 097.7420 69.7490 0000000 000.0000 341.6430 15.01920000000000
1 45935U          19309.63611111  .00000000  00000-0  00000-0 0 00000
2 45935 097.7420 70.0210 0000000 000.0000 030.3930 15.01920000000000
1 45935U          19310.07638889  .00000000  00000-0  00000-0 0 00000
2 45935 097.7420 70.4550 0000000 000.0000 247.8940 15.01920000000000
1 45935U          19310.25069444  .00000000  00000-0  00000-0 0 00000
2 45935 097.7420 70.6270 0000000 000.0000 109.1440 15.01920000000000
1 45935U          19310.69236111  .00000000  00000-0  00000-0 0 00000
2 45935 097.7430 71.0630 0000000 000.0000 334.1450 15.01920000000000
1 45935U          19310.92638889  .00000000  00000-0  00000-0 0 00000
2 45935 097.7430 71.2930 0000000 000.0000 157.8950 15.01920000000000
1 45935U          19311.25347222  .00000000  00000-0  00000-0 0 00000
2 45935 097.7430 71.6160 0000000 000.0000 124.1460 15.01920000000000
1 45935U          19311.65000000  .00000000  00000-0  00000-0 0 00000
2 45935 097.7430 72.0070 0000000 000.0000 105.3970 15.01920000000000
1 45935U          19311.89583333  .00000000  00000-0  00000-0 0 00000
2 45935 097.7430 72.2490 0000000 000.0000 352.8970 15.01914300000000
1 45935U          19312.23333333  .00000000  00000-0  00000-0 0 00000
2 45935 097.7440 72.5820 0000000 000.0000 015.3980 15.01914300000000
1 45935U          19312.56458333  .00000000  00000-0  00000-0 0 00000
2 45935 097.7440 72.9080 0000000 000.0000 004.1480 15.01914300000000
1 45935U          19312.83958333  .00000000  00000-0  00000-0 0 00000
2 45935 097.7440 73.1790 0000000 000.0000 049.1490 15.01914300000000
1 45935U          19313.26527778  .00000000  00000-0  00000-0 0 00000
2 45935 097.7440 73.5990 0000000 000.0000 187.9000 15.01914300000000
1 45935U          19313.52777778  .00000000  00000-0  00000-0 0 00000
2 45935 097.7440 73.8580 0000000 000.0000 165.4000 15.01914300000000
1 45935U          19313.85763889  .00000000  00000-0  00000-0 0 00000
2 45935 097.7440 74.1830 0000000 000.0000 146.6510 15.01914300000000
1 45935U          19314.23333333  .00000000  00000-0  00000-0 0 00000
2 45935 097.7450 74.5530 0000000 000.0000 015.4010 15.01914300000000
1 45935U          19314.54722222  .00000000  00000-0  00000-0 0 00000
2 45935 097.7450 74.8630 0000000 000.0000 270.4020 15.01914300000000
1 45935U          19314.86736111  .00000000  00000-0  00000-0 0 00000
2 45935 097.7450 75.1780 0000000 000.0000 199.1530 15.01914300000000
1 45935U          19315.30347222  .00000000  00000-0  00000-0 0 00000
2 45935 097.7450 75.6080 0000000 000.0000 034.1530 15.01914300000000
1 45935U          19315.53680556  .00000000  00000-0  00000-0 0 00000
2 45935 097.7450 75.8380 0000000 000.0000 214.1540 15.01914300000000
1 45935U          19315.82500000  .00000000  00000-0  00000-0 0 00000
2 45935 097.7450 76.1230 0000000 000.0000 330.4040 15.01914300000000
1 45935U          19316.30555556  .00000000  00000-0  00000-0 0 00000
2 45935 097.7450 76.5960 0000000 000.0000 045.4050 15.01914300000000
1 45935U          19316.54027778  .00000000  00000-0  00000-0 0 00000
2 45935 097.7460 76.8280 0000000 000.0000 232.9060 15.01914300000000
1 45935U          19316.89583333  .00000000  00000-0  00000-0 0 00000
2 45935 097.7460 77.1780 0000000 000.0000 352.9060 15.01914300000000
1 45935U          19317.26180556  .00000000  00000-0  00000-0 0 00000
2 45935 097.7460 77.5390 0000000 000.0000 169.1570 15.01914300000000
1 45935U          19317.56527778  .00000000  00000-0  00000-0 0 00000
2 45935 097.7460 77.8380 0000000 000.0000 007.9080 15.01914300000000
1 45935U          19317.81805556  .00000000  00000-0  00000-0 0 00000
2 45935 097.7460 78.0870 0000000 000.0000 292.9080 15.01914300000000
1 45935U          19318.24027778  .00000000  00000-0  00000-0 0 00000
2 45935 097.7460 78.5040 0000000 000.0000 052.9090 15.01914300000000
1 45935U          19318.57500000  .00000000  00000-0  00000-0 0 00000
2 45935 097.7460 78.8340 0000000 000.0000 060.4100 15.01914300000000
1 45935U          19318.83958333  .00000000  00000-0  00000-0 0 00000
2 45935 097.7460 79.0940 0000000 000.0000 049.1600 15.01914300000000
1 45935U          19318.89583333  .00000000  00000-0  00000-0 0 00000
2 45935 097.7460 79.1500 0000000 000.0000 352.9100 15.01914300000000
1 45935U          19319.21458333  .00000000  00000-0  00000-0 0 00000
2 45935 097.7470 79.4640 0000000 000.0000 274.1610 15.01914300000000
1 45935U          19319.57152778  .00000000  00000-0  00000-0 0 00000
2 45935 097.7470 79.8160 0000000 000.0000 041.6610 15.01914300000000
1 45935U          19319.88472222  .00000000  00000-0  00000-0 0 00000
2 45935 097.7470 80.1250 0000000 000.0000 292.9120 15.01914300000000
1 45935U          19320.16111111  .00000000  00000-0  00000-0 0 00000
2 45935 097.7470 80.3970 0000000 000.0000 345.4130 15.01914300000000
1 45935U          19320.59930556  .00000000  00000-0  00000-0 0 00000
2 45935 097.7470 80.8290 0000000 000.0000 191.6630 15.01914300000000
1 45935U          19320.95625000  .00000000  00000-0  00000-0 0 00000
2 45935 097.7470 81.1810 0000000 000.0000 319.1640 15.01914300000000
1 45935U          19321.20902778  .00000000  00000-0  00000-0 0 00000
2 45935 097.7470 81.4300 0000000 000.0000 244.1650 15.01914300000000
1 45935U          19321.61388889  .00000000  00000-0  00000-0 0 00000
2 45935 097.7470 81.8300 0000000 000.0000 270.4150 15.01914300000000
1 45935U          19321.93611111  .00000000  00000-0  00000-0 0 00000
2 45935 097.7470 82.1470 0000000 000.0000 210.4160 15.01914300000000
1 45935U          19322.24930556  .00000000  00000-0  00000-0 0 00000
2 45935 097.7470 82.4560 0000000 000.0000 101.6660 15.01914300000000
1 45935U          19322.60347222  .00000000  00000-0  00000-0 0 00000
2 45935 097.7470 82.8050 0000000 000.0000 214.1670 15.01914300000000
1 45935U          19322.86597222  .00000000  00000-0  00000-0 0 00000
2 45935 097.7480 83.0640 0000000 000.0000 191.6680 15.01914300000000
1 45935U          19323.23611111  .00000000  00000-0  00000-0 0 00000
2 45935 097.7480 83.4290 0000000 000.0000 030.4180 15.01914300000000
1 45935U          19323.48263889  .00000000  00000-0  00000-0 0 00000
2 45935 097.7480 83.6720 0000000 000.0000 281.6690 15.01914300000000
1 45935U          19323.93194444  .00000000  00000-0  00000-0 0 00000
2 45935 097.7480 84.1150 0000000 000.0000 187.9200 15.01914300000000
1 45935U          19324.23263889  .00000000  00000-0  00000-0 0 00000
2 45935 097.7480 84.4110 0000000 000.0000 011.6700 15.01914300000000
1 45935U          19324.61250000  .00000000  00000-0  00000-0 0 00000
2 45935 097.7480 84.7860 0000000 000.0000 262.9210 15.01914300000000
1 45935U          19324.86388889  .00000000  00000-0  00000-0 0 00000
2 45935 097.7480 85.0340 0000000 000.0000 180.4210 15.01914300000000
1 45935U          19325.29722222  .00000000  00000-0  00000-0 0 00000
2 45935 097.7480 85.4610 0000000 000.0000 000.4220 15.01914300000000
1 45935U          19325.55277778  .00000000  00000-0  00000-0 0 00000
2 45935 097.7480 85.7130 0000000 000.0000 300.4230 15.01914300000000
1 45935U          19325.89583333  .00000000  00000-0  00000-0 0 00000
2 45935 097.7480 86.0510 0000000 000.0000 352.9230 15.01914300000000
1 45935U          19325.92152778  .00000000  00000-0  00000-0 0 00000
2 45935 097.7480 86.0760 0000000 000.0000 131.6730 15.01914300000000
1 45935U          19326.16111111  .00000000  00000-0  00000-0 0 00000
2 45935 097.7480 86.3120 0000000 000.0000 345.4240 15.01914300000000
1 45935U          19326.54513889  .00000000  00000-0  00000-0 0 00000
2 45935 097.7480 86.6910 0000000 000.0000 259.1750 15.01914300000000
1 45935U          19326.91180556  .00000000  00000-0  00000-0 0 00000
2 45935 097.7480 87.0530 0000000 000.0000 079.1750 15.01914300000000
1 45935U          19327.16805556  .00000000  00000-0  00000-0 0 00000
2 45935 097.7480 87.3050 0000000 000.0000 022.9260 15.01914300000000
1 45935U          19327.52569444  .00000000  00000-0  00000-0 0 00000
2 45935 097.7480 87.6580 0000000 000.0000 154.1770 15.01914300000000
1 45935U          19327.92500000  .00000000  00000-0  00000-0 0 00000
2 45935 097.7480 88.0510 0000000 000.0000 150.4270 15.01914300000000
1 45935U          19328.20902778  .00000000  00000-0  00000-0 0 00000
2 45935 097.7480 88.3310 0000000 000.0000 244.1780 15.01914300000000
